SHIJIAN-21 (SJ-21)      
1 49330U 21094A   26198.65344269 -.00000358  00000+0  00000+0 0  9995
2 49330   5.1834  60.9942 0051571 168.9435  68.7159  1.00276942  5661
SES-17                  
1 49332U 21095A   26198.53966127 -.00000282  00000+0  00000+0 0  9994
2 49332   0.0221  47.6906 0000837  66.1534 308.6879  1.00269727 18153
SYRACUSE 4A             
1 49333U 21095B   26198.41941830  .00000000  00000+0  00000+0 0  9993
2 49333   0.0229  68.2620 0001685  39.9155  23.5657  1.00270486 18255
QZS-1R (MICHIBIKI-1R)   
1 49336U 21096A   26198.56919843 -.00000311  00000+0  00000+0 0  9998
2 49336  37.5223  79.1315 0755353 272.2799 280.3110  1.00244494 17316
ZHONGXING-1D            
1 49505U 21114A   26198.65008718 -.00000346  00000+0  00000+0 0  9995
2 49505   0.0260 230.1739 0000571  23.0221  46.4337  1.00267089 17122
STPSAT-6                
1 49817U 21118A   26197.96059179 -.00000055  00000+0  00000+0 0  9992
2 49817   0.3958  85.0877 0000928 244.0511 199.6623  1.00270380 16876
EXPRESS AMU-7           
1 50001U 21123A   26198.65303385 -.00000252  00000+0  00000+0 0  9992
2 50001   0.0419 240.9059 0000521  74.2298   0.4188  1.00273033 16840
EXPRESS AMU-3           
1 50002U 21123B   26197.89551023  .00000000  00000+0  00000+0 0  9992
2 50002   0.0145 344.9181 0000346 324.0235  51.0553  1.00271212  7339
TIANLIAN 2-02           
1 50005U 21124A   26198.60947359 -.00000024  00000+0  00000+0 0  9994
2 50005   0.8784  85.6321 0001631 161.1064  79.0472  1.00271035 16920
TURKSAT 5B              
1 50212U 21126A   26198.06241519  .00000136  00000+0  00000+0 0  9994
2 50212   0.0698 341.4108 0002301  12.6933   5.2373  1.00270971 16594
INMARSAT 6-F1           
1 50319U 21128A   26198.64093703  .00000000  00000+0  00000+0 0  9998
2 50319   0.0165  51.5098 0000117  46.6361 151.8079  1.00269365 16566
SHIYAN-12 01 (SY-12 01) 
1 50321U 21129A   26198.77302700  .00000137  00000+0  00000+0 0  9997
2 50321   3.7517  79.4981 0002605 288.1588 241.4506  1.00052688 16804
SHIYAN-12 02 (SY-12 02) 
1 50322U 21129B   26198.77540042 -.00000372  00000+0  00000+0 0  9993
2 50322   3.7507  79.4976 0003144  68.7419 178.7607  1.00476084 16806
TJS-9                   
1 50574U 21135A   26198.78478441 -.00000308  00000+0  00000+0 0  9992
2 50574   0.0527 100.3337 0002137 331.2020 283.8306  1.00271404 16734
GOES 18                 
1 51850U 22021A   26198.59726072  .00000087  00000+0  00000+0 0  9993
2 51850   0.0143 128.8784 0000439  42.9250 201.6141  1.00271942  6899
ZHONGXING-6D            
1 52255U 22038A   26197.83400887 -.00000364  00000+0  00000+0 0  9999
2 52255   0.0170 218.2431 0000739 323.3346 178.4012  1.00271153 15721
NILESAT 301             
1 52817U 22061A   26198.40910491 -.00000068  00000+0  00000+0 0  9991
2 52817   0.0456   5.7590 0003560  75.6357 354.1118  1.00269870 15049
CMS-02 (GSAT-24)        
1 52903U 22067A   26198.58586340 -.00000174  00000+0  00000+0 0  9992
2 52903   0.0602 252.1589 0000936 104.5975 232.5313  1.00271469 14914
MEASAT 3D               
1 52904U 22067B   26198.71125786 -.00000251  00000+0  00000+0 0  9997
2 52904   0.0392 320.1838 0000531  66.8164 256.0789  1.00270805 14950
SES-22                  
1 52933U 22071A   26198.59682737  .00000095  00000+0  00000+0 0  9999
2 52933   0.0195  39.2206 0000901  69.3391 262.6878  1.00272724  7823
WFOV (USA 332)          
1 52940U 22073A   26198.64792050 -.00000373  00000+0  00000+0 0  9995
2 52940   3.7874  78.1419 0000962 194.9910  14.8329  1.00278327 14676
TIANLIAN 2-03           
1 53100U 22078A   26198.36502958  .00000062  00000+0  00000+0 0  9998
2 53100   0.7452  77.5281 0000832  15.2018 344.5007  1.00271316 14840
SBIRS GEO-6 (USA 336)   
1 53355U 22092A   26198.72080604 -.00000299  00000+0  00000+0 0  9998
2 53355   3.2070 318.0001 0001762 155.3169 220.7028  1.00270968 14542
EUTELSAT KONNECT VHTS   
1 53765U 22110A   26198.62490751  .00000008  00000+0  00000+0 0  9998
2 53765   0.0575  99.8383 0002849 356.2497  67.0060  1.00271946  7145
ZHONGXING-1E            
1 53813U 22112A   26198.65578479  .00000000  00000+0  00000+0 0  9993
2 53813   0.0179 231.5242 0000721  40.8392 340.6106  1.00270472 14158
SES-20                  
1 53960U 22123A   26198.60393409 -.00000110  00000+0  00000+0 0  9994
2 53960   0.0137  65.5896 0001915  25.7401 318.4014  1.00268981 13831
SES-21                  
1 53961U 22123B   26198.59838740  .00000000  00000+0  00000+0 0  9992
2 53961   0.0387  39.7744 0000843  76.6851 263.4582  1.00268026  7514
GALAXY 33 (G-33)        
1 54026U 22128A   26198.59804072  .00000070  00000+0  00000+0 0  9998
2 54026   0.0155  60.9088 0001837  52.7680 264.0152  1.00269706 14048
GALAXY 34 (G-34)        
1 54027U 22128B   26198.70998764  .00000050  00000+0  00000+0 0  9992
2 54027   0.0094  64.4505 0001511  52.4540 305.2046  1.00271292 14217
ANGOSAT 2               
1 54033U 22131A   26198.83933672  .00000127  00000+0  00000+0 0  9999
2 54033   0.0184 121.9313 0000180 248.6033 250.2669  1.00274605 13789
EUTELSAT HOTBIRD 13F    
1 54048U 22134A   26198.73457484  .00000078  00000+0  00000+0 0  9994
2 54048   0.0549 285.0098 0001967  74.5752 213.4149  1.00270982 13687
LDPE-2                  
1 54219U 22144A   26198.33447486  .00000004  00000+0  00000+0 0  9991
2 54219   5.6696  63.2911 0002486 109.8930 113.9269  1.00544505 12140
